{"type": "FeatureCollection", "features": [{"type": "Feature", "properties": {"name": "Bandipur National Park", "center_lat": 11.67, "center_lon": 76.64}, "geometry": {"type": "Polygon", "coordinates": [[[76.83672, 11.67], [76.83155, 11.71043], [76.83018, 11.75285], [76.82959, 11.80102], [76.81664, 11.84741], [76.78614, 11.87846], [76.74723, 11.89232], [76.71021, 11.9009], [76.67554, 11.91125], [76.64, 11.91475], [76.60583, 11.90193], [76.57627, 11.87958], [76.54704, 11.86273], [76.51165, 11.85309], [76.47398, 11.83674], [76.4464, 11.80379], [76.43382, 11.75983], [76.42819, 11.7147], [76.42276, 11.67], [76.42387, 11.62439], [76.44118, 11.58338], [76.47109, 11.55327], [76.49952, 11.52891], [76.52005, 11.49889], [76.54025, 11.4632], [76.56863, 11.43529], [76.60365, 11.42328], [76.64, 11.41925], [76.67772, 11.41396], [76.71786, 11.41396], [76.75402, 11.43362], [76.77774, 11.47352], [76.7911, 11.51824], [76.8049, 11.55605], [76.82281, 11.59036], [76.83587, 11.62866], [76.83672, 11.67]]]}}, {"type": "Feature", "properties": {"name": "Nagarhole Tiger Reserve", "center_lat": 12.02, "center_lon": 76.13}, "geometry": {"type": "Polygon", "coordinates": [[[76.31204, 12.02], [76.30838, 12.05845], [76.30284, 12.09691], [76.29846, 12.13891], [76.28685, 12.18091], [76.26074, 12.2105], [76.22518, 12.22155], [76.19063, 12.22365], [76.16016, 12.22911], [76.13, 12.23585], [76.09938, 12.23229], [76.0715, 12.21651], [76.04522, 12.19953], [76.01472, 12.18796], [75.98047, 12.1734], [75.95331, 12.14472], [75.94207, 12.10363], [75.94225, 12.06047], [75.94361, 12.02], [75.94554, 11.98023], [75.95662, 11.94285], [75.97939, 11.91369], [76.00461, 11.89137], [76.02392, 11.86543], [76.04096, 11.83144], [76.06461, 11.80036], [76.09618, 11.7855], [76.13, 11.7854], [76.16336, 11.78869], [76.19751, 11.79322], [76.22944, 11.80942], [76.25155, 11.8429], [76.26271, 11.88385], [76.27239, 11.91949], [76.28829, 11.94956], [76.30509, 11.98225], [76.31204, 12.02]]]}}, {"type": "Feature", "properties": {"name": "Kudremukh National Park", "center_lat": 13.19, "center_lon": 75.26}, "geometry": {"type": "Polygon", "coordinates": [[[75.43591, 13.19], [75.43409, 13.23696], [75.4202, 13.27921], [75.40414, 13.31733], [75.3883, 13.35472], [75.36722, 13.38549], [75.33917, 13.39981], [75.31017, 13.40088], [75.28478, 13.40502], [75.26, 13.42029], [75.23181, 13.43458], [75.20253, 13.43158], [75.17647, 13.41135], [75.15248, 13.38604], [75.12761, 13.35997], [75.10623, 13.32583], [75.09768, 13.28039], [75.10314, 13.23232], [75.11205, 13.19], [75.11515, 13.15092], [75.11587, 13.10974], [75.12367, 13.06958], [75.14021, 13.03622], [75.15904, 13.00592], [75.17724, 12.97069], [75.1994, 12.93527], [75.22854, 12.91705], [75.26, 12.9248], [75.28805, 12.94662], [75.3133, 12.96596], [75.3384, 12.98224], [75.36066, 13.00647], [75.3757, 13.04147], [75.3867, 13.07808], [75.402, 13.11092], [75.42208, 13.14628], [75.43591, 13.19]]]}}, {"type": "Feature", "properties": {"name": "Bhadra Tiger Reserve", "center_lat": 13.61, "center_lon": 75.65}, "geometry": {"type": "Polygon", "coordinates": [[[75.86565, 13.61], [75.85778, 13.65917], [75.83901, 13.70234], [75.82055, 13.74216], [75.80162, 13.78076], [75.77514, 13.81016], [75.74164, 13.82305], [75.70908, 13.82788], [75.68034, 13.84094], [75.65, 13.86335], [75.61486, 13.87746], [75.57963, 13.8695], [75.54867, 13.84557], [75.51943, 13.81886], [75.49007, 13.79011], [75.46814, 13.75092], [75.46278, 13.70146], [75.47026, 13.65254], [75.47634, 13.61], [75.47438, 13.56844], [75.47318, 13.52362], [75.48339, 13.4809], [75.50339, 13.44489], [75.52489, 13.40989], [75.54699, 13.37053], [75.57593, 13.33687], [75.61274, 13.32636], [75.65, 13.34083], [75.68247, 13.36288], [75.71278, 13.37849], [75.74332, 13.39305], [75.76967, 13.41858], [75.7883, 13.45424], [75.8053, 13.48966], [75.82861, 13.52275], [75.85365, 13.5618], [75.86565, 13.61]]]}}, {"type": "Feature", "properties": {"name": "Dandeli-Anshi Tiger Reserve", "center_lat": 15.05, "center_lon": 74.5}, "geometry": {"type": "Polygon", "coordinates": [[[74.75045, 15.05], [74.74085, 15.10742], [74.71273, 15.15468], [74.68167, 15.19181], [74.65976, 15.23124], [74.64168, 15.27828], [74.61552, 15.32051], [74.57955, 15.34548], [74.54035, 15.35936], [74.5, 15.37541], [74.45578, 15.38909], [74.41114, 15.38008], [74.37598, 15.34043], [74.35297, 15.28689], [74.33304, 15.23941], [74.30961, 15.19861], [74.28962, 15.15352], [74.28252, 15.10184], [74.284, 15.05], [74.28149, 14.99791], [74.27441, 14.93899], [74.27772, 14.87649], [74.30244, 14.82588], [74.34185, 14.79519], [74.3823, 14.77437], [74.42001, 14.75288], [74.45935, 14.73831], [74.5, 14.74478], [74.53677, 14.76804], [74.57067, 14.78748], [74.6092, 14.79428], [74.6528, 14.8038], [74.69036, 14.83404], [74.71356, 14.8833], [74.72794, 14.93783], [74.74189, 14.99234], [74.75045, 15.05]]]}}, {"type": "Feature", "properties": {"name": "Brahmagiri Wildlife Sanctuary", "center_lat": 11.95, "center_lon": 75.96}, "geometry": {"type": "Polygon", "coordinates": [[[76.07368, 11.95], [76.07156, 11.97309], [76.06749, 11.99593], [76.06433, 12.02072], [76.05757, 12.04612], [76.04211, 12.06488], [76.02013, 12.07226], [75.99816, 12.07309], [75.97883, 12.07537], [75.96, 12.07919], [75.94082, 12.07768], [75.92328, 12.06845], [75.90714, 12.05748], [75.88875, 12.04968], [75.86754, 12.04108], [75.84982, 12.02468], [75.8419, 12.00047], [75.84198, 11.97443], [75.84347, 11.95], [75.84484, 11.92616], [75.85116, 11.90349], [75.86496, 11.88558], [75.88122, 11.87239], [75.89413, 11.85784], [75.90502, 11.8382], [75.91942, 11.81912], [75.93885, 11.80921], [75.96, 11.80892], [75.9808, 11.81152], [76.00202, 11.81447], [76.02225, 11.82342], [76.03673, 11.84265], [76.0439, 11.86735], [76.04919, 11.88954], [76.05823, 11.90803], [76.0687, 11.9275], [76.07368, 11.95]]]}}, {"type": "Feature", "properties": {"name": "Pushpagiri Wildlife Sanctuary", "center_lat": 12.56, "center_lon": 75.7}, "geometry": {"type": "Polygon", "coordinates": [[[75.80535, 12.56], [75.80413, 12.58281], [75.79847, 12.60452], [75.79257, 12.6264], [75.78461, 12.6482], [75.77049, 12.66436], [75.75124, 12.67025], [75.73218, 12.66984], [75.71585, 12.67168], [75.7, 12.67754], [75.68289, 12.68054], [75.66614, 12.67556], [75.65075, 12.66596], [75.63448, 12.65701], [75.61646, 12.64708], [75.60161, 12.63057], [75.5959, 12.60707], [75.59839, 12.58226], [75.6023, 12.56], [75.60416, 12.53901], [75.60766, 12.51825], [75.61672, 12.50027], [75.62906, 12.48605], [75.63997, 12.47112], [75.64971, 12.45179], [75.66273, 12.4328], [75.68059, 12.42326], [75.7, 12.42528], [75.71815, 12.43212], [75.73559, 12.43852], [75.75228, 12.44751], [75.765, 12.46377], [75.77201, 12.48494], [75.77746, 12.50444], [75.78671, 12.52079], [75.79837, 12.53845], [75.80535, 12.56]]]}}, {"type": "Feature", "properties": {"name": "Talacauvery Wildlife Sanctuary", "center_lat": 12.38, "center_lon": 75.53}, "geometry": {"type": "Polygon", "coordinates": [[[75.62452, 12.38], [75.62402, 12.40024], [75.61901, 12.41955], [75.61362, 12.43895], [75.60684, 12.45872], [75.59475, 12.47421], [75.57751, 12.48046], [75.55978, 12.4799], [75.54448, 12.48024], [75.53, 12.48435], [75.51457, 12.48686], [75.49942, 12.48257], [75.48569, 12.4737], [75.4714, 12.46526], [75.45518, 12.45665], [75.44089, 12.44281], [75.43444, 12.42246], [75.43611, 12.40021], [75.44006, 12.38], [75.44235, 12.36113], [75.44566, 12.34252], [75.45387, 12.32633], [75.46553, 12.31395], [75.47617, 12.30168], [75.48527, 12.28541], [75.49669, 12.26825], [75.51244, 12.25844], [75.53, 12.25913], [75.5466, 12.26506], [75.56251, 12.27093], [75.57793, 12.27865], [75.58998, 12.29273], [75.59649, 12.31188], [75.60065, 12.3302], [75.60779, 12.34543], [75.61778, 12.3611], [75.62452, 12.38]]]}}, {"type": "Feature", "properties": {"name": "Aralam Wildlife Sanctuary", "center_lat": 11.91, "center_lon": 75.86}, "geometry": {"type": "Polygon", "coordinates": [[[75.92816, 11.91], [75.92698, 11.92387], [75.92434, 11.9375], [75.92227, 11.95221], [75.91835, 11.96749], [75.90937, 11.97909], [75.8963, 11.98382], [75.883, 11.9842], [75.8713, 11.98522], [75.86, 11.98739], [75.84848, 11.98669], [75.83791, 11.98127], [75.82831, 11.97445], [75.81751, 11.96946], [75.80489, 11.9643], [75.79402, 11.95473], [75.78893, 11.94037], [75.78894, 11.92471], [75.79005, 11.91], [75.79097, 11.89571], [75.79456, 11.88204], [75.80267, 11.87113], [75.81255, 11.86325], [75.8206, 11.85487], [75.82724, 11.84338], [75.83577, 11.83182], [75.84731, 11.82552], [75.86, 11.82523], [75.87247, 11.82699], [75.88514, 11.82889], [75.89736, 11.83401], [75.90629, 11.84523], [75.91069, 11.86006], [75.91362, 11.87365], [75.91871, 11.88491], [75.92495, 11.89655], [75.92816, 11.91]]]}}, {"type": "Feature", "properties": {"name": "Someshwara Wildlife Sanctuary", "center_lat": 13.62, "center_lon": 74.87}, "geometry": {"type": "Polygon", "coordinates": [[[74.96211, 13.62], [74.96126, 13.63911], [74.95275, 13.65578], [74.94222, 13.66953], [74.93299, 13.68278], [74.92309, 13.69516], [74.91026, 13.70284], [74.89606, 13.70504], [74.88292, 13.70702], [74.87, 13.71318], [74.85514, 13.72014], [74.83924, 13.7204], [74.82538, 13.71181], [74.8141, 13.69914], [74.80333, 13.68645], [74.79346, 13.67249], [74.78855, 13.65521], [74.79058, 13.63664], [74.79526, 13.62], [74.79694, 13.6047], [74.79596, 13.58799], [74.79772, 13.57043], [74.80517, 13.55539], [74.81584, 13.54333], [74.82683, 13.53119], [74.83899, 13.5188], [74.85394, 13.51183], [74.87, 13.51498], [74.88411, 13.52495], [74.89631, 13.53415], [74.90881, 13.54016], [74.92135, 13.54731], [74.93115, 13.55905], [74.93796, 13.57339], [74.94535, 13.58742], [74.9549, 13.60222], [74.96211, 13.62]]]}}, {"type": "Feature", "properties": {"name": "Sharavathi Valley WLS", "center_lat": 14.05, "center_lon": 74.87}, "geometry": {"type": "Polygon", "coordinates": [[[74.99935, 14.05], [74.99613, 14.07762], [74.98262, 14.1009], [74.96721, 14.11969], [74.95469, 14.13824], [74.94201, 14.15655], [74.92543, 14.16922], [74.90656, 14.17471], [74.88844, 14.17985], [74.87, 14.19023], [74.84864, 14.20038], [74.8262, 14.19943], [74.80732, 14.1848], [74.79277, 14.16428], [74.77929, 14.14451], [74.76677, 14.124], [74.7603, 14.09958], [74.76236, 14.07357], [74.76718, 14.05], [74.76748, 14.02755], [74.76445, 14.0023], [74.76615, 13.97555], [74.77683, 13.95293], [74.79277, 13.93571], [74.80935, 13.91955], [74.82715, 13.90381], [74.84812, 13.89595], [74.87, 13.90195], [74.88896, 13.91648], [74.90561, 13.92853], [74.92341, 13.93514], [74.94201, 13.94344], [74.95715, 13.9592], [74.96784, 13.97986], [74.97847, 14.00098], [74.991, 14.02351], [74.99935, 14.05]]]}}, {"type": "Feature", "properties": {"name": "Aghanashini Lion-Tailed Macaque Reserve", "center_lat": 14.5, "center_lon": 74.65}, "geometry": {"type": "Polygon", "coordinates": [[[74.79384, 14.5], [74.78935, 14.53228], [74.77338, 14.559], [74.75522, 14.57982], [74.74144, 14.60082], [74.72915, 14.62394], [74.71276, 14.64282], [74.69239, 14.65304], [74.6715, 14.6602], [74.65, 14.67137], [74.62556, 14.68209], [74.60016, 14.67993], [74.57941, 14.66065], [74.56484, 14.63335], [74.55211, 14.60793], [74.53905, 14.58416], [74.53028, 14.55725], [74.52984, 14.52784], [74.53329, 14.5], [74.53276, 14.47284], [74.52854, 14.44192], [74.52957, 14.40865], [74.54185, 14.38076], [74.56167, 14.36169], [74.58248, 14.34634], [74.60328, 14.33134], [74.62625, 14.32306], [74.65, 14.32903], [74.67081, 14.34495], [74.68927, 14.35824], [74.70969, 14.36417], [74.73232, 14.3711], [74.7517, 14.38787], [74.7647, 14.41299], [74.77512, 14.44017], [74.78643, 14.46839], [74.79384, 14.5]]]}}, {"type": "Feature", "properties": {"name": "Mookambika Wildlife Sanctuary", "center_lat": 14.0, "center_lon": 74.8}, "geometry": {"type": "Polygon", "coordinates": [[[74.9136, 14.0], [74.9113, 14.03029], [74.89965, 14.05599], [74.88589, 14.07655], [74.87459, 14.09662], [74.86338, 14.1166], [74.84886, 14.13064], [74.8322, 14.13658], [74.81618, 14.14162], [74.8, 14.15238], [74.78132, 14.16357], [74.76152, 14.16321], [74.74473, 14.14776], [74.73188, 14.12532], [74.72011, 14.10349], [74.70905, 14.08106], [74.7031, 14.05444], [74.70478, 14.02592], [74.70934, 14.0], [74.71014, 13.97554], [74.7077, 13.94814], [74.70899, 13.91889], [74.71812, 13.89394], [74.73208, 13.87506], [74.74673, 13.85756], [74.76234, 13.84028], [74.78071, 13.8311], [74.8, 13.83707], [74.81679, 13.85305], [74.83138, 13.86691], [74.84687, 13.87469], [74.86318, 13.88377], [74.87658, 13.90081], [74.88595, 13.9234], [74.89505, 13.9466], [74.90594, 13.97116], [74.9136, 14.0]]]}}, {"type": "Feature", "properties": {"name": "Bhimgad Wildlife Sanctuary", "center_lat": 15.58, "center_lon": 74.35}, "geometry": {"type": "Polygon", "coordinates": [[[74.46562, 15.58], [74.46147, 15.60367], [74.44949, 15.6236], [74.43612, 15.63987], [74.42699, 15.65779], [74.41963, 15.67991], [74.40779, 15.70052], [74.3901, 15.71264], [74.37013, 15.71747], [74.35, 15.72117], [74.32894, 15.72383], [74.30824, 15.71815], [74.29219, 15.70057], [74.28194, 15.67767], [74.27273, 15.65807], [74.26052, 15.6422], [74.24836, 15.62454], [74.24199, 15.60293], [74.24115, 15.58], [74.24042, 15.55674], [74.23856, 15.53116], [74.24173, 15.50473], [74.25504, 15.48406], [74.27534, 15.47287], [74.29556, 15.46646], [74.31332, 15.45867], [74.33115, 15.45131], [74.35, 15.4509], [74.36792, 15.45766], [74.38501, 15.46418], [74.40442, 15.46651], [74.42622, 15.47063], [74.44468, 15.48435], [74.45491, 15.50707], [74.45929, 15.53211], [74.46304, 15.556], [74.46562, 15.58]]]}}, {"type": "Feature", "properties": {"name": "Ranebennur Blackbuck Sanctuary", "center_lat": 14.62, "center_lon": 75.64}, "geometry": {"type": "Polygon", "coordinates": [[[75.74332, 14.62], [75.73601, 14.63229], [75.72463, 14.64236], [75.71531, 14.65155], [75.70766, 14.6612], [75.69745, 14.66969], [75.68377, 14.67502], [75.66945, 14.67873], [75.65558, 14.68411], [75.64, 14.69072], [75.6221, 14.69369], [75.60505, 14.68969], [75.59144, 14.68104], [75.57978, 14.67208], [75.56825, 14.66369], [75.55927, 14.65383], [75.55636, 14.64209], [75.55768, 14.63053], [75.55711, 14.62], [75.55263, 14.60882], [75.54965, 14.59614], [75.55405, 14.58399], [75.56501, 14.57434], [75.57776, 14.56617], [75.59067, 14.55799], [75.60577, 14.55174], [75.62324, 14.55103], [75.64, 14.55559], [75.65443, 14.5606], [75.66874, 14.5627], [75.68454, 14.56401], [75.69948, 14.56856], [75.7109, 14.57683], [75.72053, 14.58626], [75.73134, 14.59587], [75.74106, 14.60707], [75.74332, 14.62]]]}}, {"type": "Feature", "properties": {"name": "Kkatta RF", "center_lat": 13.87, "center_lon": 74.96}, "geometry": {"type": "Polygon", "coordinates": [[[75.01166, 13.87], [75.01052, 13.88038], [75.00535, 13.88923], [74.99943, 13.89652], [74.99445, 13.90368], [74.98912, 13.91043], [74.98217, 13.91474], [74.97448, 13.91634], [74.96728, 13.91808], [74.96, 13.92199], [74.95155, 13.92582], [74.94266, 13.9255], [74.93509, 13.92026], [74.92902, 13.91301], [74.92325, 13.90592], [74.91805, 13.89822], [74.9156, 13.88883], [74.91672, 13.87889], [74.91886, 13.87], [74.91914, 13.86161], [74.91815, 13.85225], [74.91907, 13.84247], [74.92337, 13.83419], [74.92947, 13.82762], [74.93577, 13.82111], [74.94274, 13.81475], [74.95116, 13.81162], [74.96, 13.81389], [74.96767, 13.81935], [74.9744, 13.82391], [74.98149, 13.82664], [74.98867, 13.8302], [74.99434, 13.83643], [74.99841, 13.84416], [75.0028, 13.85185], [75.0081, 13.86012], [75.01166, 13.87]]]}}, {"type": "Feature", "properties": {"name": "Mandagadde Bird Sanctuary", "center_lat": 13.55, "center_lon": 75.51}, "geometry": {"type": "Polygon", "coordinates": [[[75.53051, 13.55], [75.52988, 13.55426], [75.52808, 13.558], [75.52625, 13.5614], [75.52443, 13.56471], [75.52197, 13.56733], [75.5188, 13.56852], [75.51565, 13.56886], [75.51287, 13.5698], [75.51, 13.57162], [75.50667, 13.57293], [75.5033, 13.57238], [75.50034, 13.57034], [75.49759, 13.56797], [75.49482, 13.56548], [75.49265, 13.56217], [75.49201, 13.55795], [75.49272, 13.5537], [75.49344, 13.55], [75.49338, 13.54644], [75.49325, 13.54259], [75.49414, 13.53888], [75.49603, 13.53576], [75.49814, 13.53282], [75.50026, 13.52951], [75.50297, 13.52653], [75.50644, 13.52544], [75.51, 13.52658], [75.51311, 13.52857], [75.51597, 13.53006], [75.51887, 13.53133], [75.52142, 13.53346], [75.52322, 13.53652], [75.52475, 13.53965], [75.52685, 13.54255], [75.52923, 13.54588], [75.53051, 13.55]]]}}, {"type": "Feature", "properties": {"name": "BRT Wildlife Sanctuary", "center_lat": 11.93, "center_lon": 77.1}, "geometry": {"type": "Polygon", "coordinates": [[[77.23083, 11.93], [77.22948, 11.9583], [77.23115, 11.98916], [77.23022, 12.02318], [77.21825, 12.05297], [77.19545, 12.07097], [77.16979, 12.07981], [77.14639, 12.08795], [77.12366, 12.0963], [77.1, 12.09695], [77.07771, 12.08663], [77.05782, 12.07362], [77.03642, 12.06649], [77.01095, 12.06152], [76.98659, 12.04794], [76.97086, 12.0224], [76.96372, 11.99147], [76.95883, 11.96085], [76.95459, 11.93], [76.95744, 11.89885], [76.97157, 11.87207], [76.99099, 11.85201], [77.00664, 11.83292], [77.01789, 11.80872], [77.03167, 11.78333], [77.05191, 11.76625], [77.07569, 11.75916], [77.1, 11.7546], [77.12568, 11.74949], [77.1523, 11.75193], [77.17453, 11.77001], [77.18851, 11.79927], [77.1982, 11.82789], [77.21009, 11.85123], [77.2233, 11.87438], [77.23087, 11.9014], [77.23083, 11.93]]]}}, {"type": "Feature", "properties": {"name": "Cauvery Wildlife Sanctuary", "center_lat": 12.2, "center_lon": 77.46}, "geometry": {"type": "Polygon", "coordinates": [[[77.65753, 12.2], [77.65871, 12.24947], [77.66309, 12.30436], [77.65912, 12.3623], [77.63642, 12.409], [77.59993, 12.43544], [77.56252, 12.4507], [77.52898, 12.46759], [77.49527, 12.48241], [77.46, 12.48125], [77.42704, 12.46393], [77.39626, 12.44726], [77.36147, 12.44094], [77.32173, 12.43264], [77.28709, 12.40483], [77.26675, 12.35752], [77.25696, 12.30434], [77.24852, 12.25265], [77.24276, 12.2], [77.25024, 12.14778], [77.27333, 12.10408], [77.29991, 12.06951], [77.31868, 12.03259], [77.33332, 11.98686], [77.35513, 11.94356], [77.38712, 11.91732], [77.42325, 11.90572], [77.46, 11.89567], [77.49906, 11.88724], [77.53812, 11.89699], [77.56885, 11.93381], [77.58834, 11.98406], [77.60483, 12.02843], [77.62595, 12.06473], [77.64672, 12.10405], [77.65699, 12.15096], [77.65753, 12.2]]]}}, {"type": "Feature", "properties": {"name": "Male Mahadeshwara Wildlife Sanctuary", "center_lat": 11.87, "center_lon": 77.5}, "geometry": {"type": "Polygon", "coordinates": [[[77.64957, 11.87], [77.65023, 11.90111], [77.65454, 11.93605], [77.65294, 11.97369], [77.6369, 12.0049], [77.60989, 12.02379], [77.58146, 12.0357], [77.55512, 12.04784], [77.52807, 12.05694], [77.5, 12.0541], [77.47443, 12.04028], [77.45121, 12.02741], [77.42517, 12.0222], [77.39518, 12.01669], [77.36857, 11.99951], [77.35196, 11.97037], [77.34239, 11.93737], [77.33347, 11.90448], [77.32737, 11.87], [77.33292, 11.8354], [77.35177, 11.80664], [77.3739, 11.7845], [77.39007, 11.76168], [77.40278, 11.73394], [77.42036, 11.70801], [77.44492, 11.69228], [77.47212, 11.68431], [77.5, 11.67573], [77.53038, 11.66765], [77.56141, 11.67185], [77.58628, 11.69451], [77.60229, 11.72684], [77.61539, 11.75629], [77.631, 11.78118], [77.64516, 11.80795], [77.65078, 11.83878], [77.64957, 11.87]]]}}, {"type": "Feature", "properties": {"name": "Biligiri Rangaswamy Temple WLS", "center_lat": 11.93, "center_lon": 77.1}, "geometry": {"type": "Polygon", "coordinates": [[[77.22211, 11.93], [77.22085, 11.95383], [77.2224, 11.97982], [77.22154, 12.00846], [77.21037, 12.03355], [77.18908, 12.04871], [77.16514, 12.05615], [77.1433, 12.06301], [77.12208, 12.07004], [77.1, 12.07059], [77.0792, 12.0619], [77.06063, 12.05095], [77.04065, 12.04494], [77.01689, 12.04076], [76.99415, 12.02932], [76.97947, 12.00781], [76.97281, 11.98177], [76.96824, 11.95598], [76.96429, 11.93], [76.96695, 11.90377], [76.98013, 11.88122], [76.99826, 11.86432], [77.01287, 11.84825], [77.02336, 11.82787], [77.03623, 11.80649], [77.05512, 11.79211], [77.07731, 11.78613], [77.1, 11.7823], [77.12397, 11.77799], [77.14881, 11.78004], [77.16956, 11.79527], [77.18261, 11.81991], [77.19165, 11.84401], [77.20275, 11.86367], [77.21508, 11.88316], [77.22215, 11.90592], [77.22211, 11.93]]]}}, {"type": "Feature", "properties": {"name": "Basavanahalli Reserve Forest", "center_lat": 12.34, "center_lon": 77.26}, "geometry": {"type": "Polygon", "coordinates": [[[77.32713, 12.34], [77.32699, 12.35385], [77.32777, 12.36892], [77.32631, 12.38488], [77.31893, 12.39797], [77.30668, 12.40521], [77.29386, 12.40875], [77.28258, 12.41273], [77.27159, 12.41708], [77.26, 12.41787], [77.24888, 12.41393], [77.2385, 12.40924], [77.22699, 12.40703], [77.2137, 12.40468], [77.20181, 12.39724], [77.19488, 12.38407], [77.19221, 12.36893], [77.19036, 12.3544], [77.1888, 12.34], [77.19076, 12.32569], [77.19778, 12.31345], [77.20651, 12.3038], [77.21296, 12.29373], [77.21776, 12.28099], [77.22469, 12.26831], [77.23527, 12.26035], [77.24757, 12.25738], [77.26, 12.2557], [77.2729, 12.25423], [77.28581, 12.25686], [77.29615, 12.26659], [77.30262, 12.28046], [77.30778, 12.293], [77.31468, 12.30299], [77.32219, 12.31346], [77.32659, 12.32624], [77.32713, 12.34]]]}}, {"type": "Feature", "properties": {"name": "Kollegal RF", "center_lat": 12.17, "center_lon": 77.1}, "geometry": {"type": "Polygon", "coordinates": [[[77.17107, 12.17], [77.17051, 12.18519], [77.17115, 12.20164], [77.17012, 12.21947], [77.16312, 12.23471], [77.15049, 12.24353], [77.13664, 12.24755], [77.12428, 12.25151], [77.11242, 12.25606], [77.1, 12.25701], [77.0881, 12.25245], [77.07724, 12.24641], [77.06544, 12.24313], [77.05156, 12.24054], [77.03853, 12.23303], [77.03046, 12.21906], [77.02726, 12.20235], [77.02535, 12.18608], [77.02361, 12.17], [77.02529, 12.1539], [77.03259, 12.14002], [77.04242, 12.12938], [77.05016, 12.1189], [77.05571, 12.1055], [77.06291, 12.09151], [77.07385, 12.0822], [77.08681, 12.07862], [77.1, 12.07683], [77.11371, 12.07501], [77.12767, 12.0771], [77.13917, 12.08709], [77.14634, 12.10252], [77.15149, 12.11721], [77.15816, 12.12897], [77.16583, 12.14072], [77.17056, 12.1548], [77.17107, 12.17]]]}}, {"type": "Feature", "properties": {"name": "Sathyamangalam TigerReserve fringe (KA)", "center_lat": 11.62, "center_lon": 77.25}, "geometry": {"type": "Polygon", "coordinates": [[[77.33499, 11.62], [77.33399, 11.63813], [77.33572, 11.6582], [77.33567, 11.68056], [77.32813, 11.70027], [77.31357, 11.71277], [77.29719, 11.72007], [77.28179, 11.72693], [77.26622, 11.73262], [77.25, 11.73167], [77.23515, 11.72311], [77.2222, 11.71353], [77.20827, 11.70849], [77.19178, 11.70495], [77.17617, 11.69585], [77.16586, 11.67948], [77.16014, 11.66005], [77.15514, 11.64048], [77.15104, 11.62], [77.15283, 11.59902], [77.16287, 11.58117], [77.17637, 11.56795], [77.18721, 11.5555], [77.19533, 11.54023], [77.20521, 11.52502], [77.21887, 11.51529], [77.23428, 11.51082], [77.25, 11.50645], [77.26709, 11.50131], [77.28511, 11.50189], [77.30025, 11.51344], [77.31002, 11.53242], [77.31709, 11.55108], [77.32516, 11.56687], [77.33299, 11.58302], [77.3363, 11.60137], [77.33499, 11.62]]]}}, {"type": "Feature", "properties": {"name": "Tungabhadra RF", "center_lat": 15.0, "center_lon": 76.5}, "geometry": {"type": "Polygon", "coordinates": [[[76.64971, 15.0], [76.63603, 15.01931], [76.62313, 15.03607], [76.61406, 15.05301], [76.60285, 15.06946], [76.5853, 15.08183], [76.56478, 15.09032], [76.54528, 15.10015], [76.52482, 15.11332], [76.5, 15.12347], [76.47309, 15.12286], [76.44929, 15.11214], [76.4292, 15.0987], [76.4098, 15.08653], [76.39225, 15.07278], [76.38215, 15.05477], [76.38007, 15.03514], [76.37809, 15.0173], [76.36991, 15.0], [76.36048, 14.9802], [76.3602, 14.95904], [76.37174, 14.94039], [76.3885, 14.92469], [76.40545, 14.9093], [76.42488, 14.89527], [76.44958, 14.8885], [76.47624, 14.89152], [76.5, 14.89825], [76.52167, 14.90106], [76.54499, 14.9005], [76.56911, 14.90365], [76.58965, 14.914], [76.60659, 14.928], [76.62446, 14.94216], [76.643, 14.95811], [76.65364, 14.97819], [76.64971, 15.0]]]}}, {"type": "Feature", "properties": {"name": "Anjanapura RF", "center_lat": 14.34, "center_lon": 76.25}, "geometry": {"type": "Polygon", "coordinates": [[[76.363, 14.34], [76.35481, 14.35628], [76.34474, 14.37037], [76.33647, 14.38397], [76.32687, 14.39681], [76.31281, 14.40592], [76.29648, 14.4109], [76.28149, 14.41621], [76.26706, 14.4252], [76.25, 14.43425], [76.23067, 14.43655], [76.21257, 14.43057], [76.19686, 14.42107], [76.18168, 14.41171], [76.1677, 14.40082], [76.15949, 14.38602], [76.15891, 14.3692], [76.16067, 14.35387], [76.15842, 14.34], [76.15335, 14.32499], [76.15251, 14.30875], [76.1593, 14.29388], [76.17016, 14.281], [76.18131, 14.2679], [76.19419, 14.25486], [76.21152, 14.24689], [76.23153, 14.24776], [76.25, 14.25407], [76.2662, 14.2591], [76.28254, 14.26125], [76.29914, 14.26503], [76.31318, 14.27368], [76.32442, 14.285], [76.33666, 14.29593], [76.35114, 14.30758], [76.36214, 14.32258], [76.363, 14.34]]]}}, {"type": "Feature", "properties": {"name": "Bheemarayanagudi WLS", "center_lat": 16.05, "center_lon": 76.68}, "geometry": {"type": "Polygon", "coordinates": [[[76.78153, 16.05], [76.7721, 16.06277], [76.76604, 16.07462], [76.7634, 16.08786], [76.75804, 16.10149], [76.74651, 16.11233], [76.73152, 16.12017], [76.71612, 16.12804], [76.69936, 16.13632], [76.68, 16.1403], [76.66074, 16.13589], [76.645, 16.12561], [76.63183, 16.1156], [76.61806, 16.10804], [76.6044, 16.09988], [76.59483, 16.08866], [76.58967, 16.07585], [76.58397, 16.06331], [76.57529, 16.05], [76.569, 16.03461], [76.57224, 16.01916], [76.5848, 16.00678], [76.60005, 15.99725], [76.61394, 15.9881], [76.62841, 15.97973], [76.64559, 15.97565], [76.66355, 15.97663], [76.68, 15.97814], [76.69655, 15.97619], [76.71554, 15.97323], [76.73495, 15.97517], [76.75062, 15.98382], [76.76238, 15.99565], [76.77344, 16.00758], [76.78347, 16.02039], [76.78707, 16.03515], [76.78153, 16.05]]]}}, {"type": "Feature", "properties": {"name": "Gudavi Bird Sanctuary", "center_lat": 13.59, "center_lon": 75.31}, "geometry": {"type": "Polygon", "coordinates": [[[75.33054, 13.59], [75.33002, 13.59343], [75.32815, 13.59642], [75.32614, 13.59906], [75.32428, 13.60164], [75.32192, 13.60381], [75.31885, 13.6049], [75.31569, 13.60519], [75.31287, 13.60581], [75.31, 13.6072], [75.30667, 13.60835], [75.30324, 13.60806], [75.30025, 13.60641], [75.29761, 13.60436], [75.29495, 13.60227], [75.29275, 13.59968], [75.29198, 13.59638], [75.29263, 13.59298], [75.29347, 13.59], [75.29351, 13.58717], [75.29331, 13.5841], [75.29403, 13.58104], [75.29588, 13.57848], [75.29809, 13.5762], [75.30031, 13.57369], [75.30301, 13.57133], [75.30643, 13.57032], [75.31, 13.57117], [75.31311, 13.57287], [75.31592, 13.5742], [75.31879, 13.5752], [75.32144, 13.57675], [75.32335, 13.57911], [75.32486, 13.58166], [75.32682, 13.58405], [75.32914, 13.58672], [75.33054, 13.59]]]}}, {"type": "Feature", "properties": {"name": "Lakkavalli RF", "center_lat": 13.7, "center_lon": 75.62}, "geometry": {"type": "Polygon", "coordinates": [[[75.74368, 13.7], [75.73887, 13.72376], [75.7277, 13.74443], [75.7168, 13.76335], [75.70597, 13.78176], [75.69111, 13.79605], [75.67227, 13.80261], [75.65381, 13.8053], [75.63741, 13.81188], [75.62, 13.82296], [75.59978, 13.83], [75.5795, 13.82613], [75.56184, 13.81418], [75.54541, 13.80075], [75.52901, 13.78654], [75.51669, 13.76761], [75.51362, 13.74389], [75.51781, 13.72042], [75.52113, 13.7], [75.51971, 13.67996], [75.51858, 13.65816], [75.52407, 13.63722], [75.53549, 13.61962], [75.54805, 13.60281], [75.56099, 13.58415], [75.5777, 13.56826], [75.59876, 13.56346], [75.62, 13.57071], [75.63842, 13.58158], [75.65562, 13.58909], [75.67311, 13.59572], [75.68846, 13.60752], [75.69949, 13.6244], [75.70942, 13.64148], [75.72275, 13.65761], [75.73697, 13.67662], [75.74368, 13.7]]]}}, {"type": "Feature", "properties": {"name": "Shettihalli WLS", "center_lat": 13.45, "center_lon": 75.56}, "geometry": {"type": "Polygon", "coordinates": [[[75.70282, 13.45], [75.69874, 13.47889], [75.6868, 13.5045], [75.67453, 13.52809], [75.66195, 13.55103], [75.64434, 13.56871], [75.62175, 13.57631], [75.59951, 13.57819], [75.58005, 13.58427], [75.56, 13.59637], [75.53689, 13.60479], [75.51349, 13.60091], [75.49279, 13.58748], [75.47321, 13.57215], [75.45327, 13.55577], [75.43779, 13.53333], [75.43337, 13.50443], [75.43838, 13.47533], [75.44346, 13.45], [75.44332, 13.4257], [75.44307, 13.39974], [75.44991, 13.37494], [75.46326, 13.35414], [75.47763, 13.33406], [75.49207, 13.31104], [75.5108, 13.29036], [75.53501, 13.28262], [75.56, 13.29006], [75.58193, 13.30314], [75.6022, 13.31308], [75.62247, 13.32221], [75.63993, 13.33751], [75.65196, 13.35888], [75.66241, 13.38017], [75.67709, 13.39967], [75.69381, 13.42214], [75.70282, 13.45]]]}}, {"type": "Feature", "properties": {"name": "Devara Betta RF", "center_lat": 13.08, "center_lon": 76.5}, "geometry": {"type": "Polygon", "coordinates": [[[76.55868, 13.08], [76.55692, 13.09222], [76.5544, 13.10411], [76.55151, 13.11621], [76.54587, 13.12686], [76.53656, 13.13304], [76.52605, 13.13494], [76.51693, 13.13665], [76.50882, 13.1409], [76.5, 13.14527], [76.49047, 13.14578], [76.48133, 13.14244], [76.47227, 13.13848], [76.46229, 13.13472], [76.45273, 13.1283], [76.44698, 13.11727], [76.4462, 13.10384], [76.44748, 13.09128], [76.44769, 13.08], [76.44762, 13.06875], [76.45011, 13.05789], [76.45539, 13.04864], [76.46085, 13.04], [76.46521, 13.02952], [76.47056, 13.01791], [76.47897, 13.00966], [76.48955, 13.00782], [76.5, 13.01014], [76.50975, 13.01269], [76.51929, 13.01546], [76.52776, 13.02145], [76.53363, 13.0312], [76.53775, 13.04143], [76.5431, 13.0497], [76.5505, 13.05762], [76.55678, 13.06781], [76.55868, 13.08]]]}}, {"type": "Feature", "properties": {"name": "Kauvery Fishing Camp Forest", "center_lat": 12.58, "center_lon": 77.35}, "geometry": {"type": "Polygon", "coordinates": [[[77.40462, 12.58], [77.40459, 12.58783], [77.40503, 12.59629], [77.40331, 12.60503], [77.39678, 12.61193], [77.3867, 12.61557], [77.37657, 12.61742], [77.36781, 12.6198], [77.3592, 12.62245], [77.35, 12.62311], [77.34106, 12.62126], [77.33252, 12.61907], [77.32296, 12.61809], [77.31219, 12.61665], [77.30295, 12.61211], [77.29793, 12.60445], [77.29621, 12.59592], [77.29495, 12.58789], [77.29385, 12.58], [77.29551, 12.57219], [77.30094, 12.56548], [77.30738, 12.55999], [77.31193, 12.55402], [77.3155, 12.54656], [77.32118, 12.5394], [77.32992, 12.53514], [77.33997, 12.53373], [77.35, 12.53302], [77.36029, 12.53253], [77.3704, 12.53441], [77.37835, 12.54007], [77.38339, 12.54763], [77.3878, 12.5542], [77.39385, 12.55941], [77.4003, 12.56511], [77.40404, 12.57225], [77.40462, 12.58]]]}}, {"type": "Feature", "properties": {"name": "Nugu Wildlife Sanctuary", "center_lat": 11.97, "center_lon": 76.35}, "geometry": {"type": "Polygon", "coordinates": [[[76.43108, 11.97], [76.4293, 11.98672], [76.42758, 12.00376], [76.42626, 12.02264], [76.42085, 12.04108], [76.40863, 12.05355], [76.39262, 12.05825], [76.37738, 12.05995], [76.36374, 12.06315], [76.35, 12.06577], [76.33628, 12.06302], [76.32398, 12.05548], [76.31207, 12.04855], [76.29795, 12.04417], [76.28251, 12.03771], [76.27086, 12.02463], [76.26615, 12.00649], [76.26565, 11.98778], [76.26532, 11.97], [76.26605, 11.9523], [76.27181, 11.93598], [76.2827, 11.92354], [76.29387, 11.91368], [76.30208, 11.90172], [76.30973, 11.88661], [76.32069, 11.87371], [76.33495, 11.86796], [76.35, 11.86757], [76.36507, 11.86784], [76.38067, 11.86924], [76.39495, 11.8769], [76.4045, 11.89234], [76.4095, 11.91031], [76.41442, 11.92553], [76.42192, 11.9387], [76.42889, 11.95337], [76.43108, 11.97]]]}}, {"type": "Feature", "properties": {"name": "Melkote Temple WLS", "center_lat": 12.65, "center_lon": 76.64}, "geometry": {"type": "Polygon", "coordinates": [[[76.68707, 12.65], [76.68612, 12.65952], [76.68504, 12.66919], [76.68348, 12.67939], [76.67909, 12.6884], [76.67126, 12.69362], [76.66232, 12.69527], [76.65448, 12.69658], [76.64744, 12.69942], [76.64, 12.70179], [76.63231, 12.70107], [76.62508, 12.69801], [76.61767, 12.69529], [76.60915, 12.69304], [76.60084, 12.68848], [76.59563, 12.68], [76.59439, 12.66944], [76.5948, 12.65933], [76.59474, 12.65], [76.59519, 12.64075], [76.59827, 12.63222], [76.60352, 12.62534], [76.60836, 12.61891], [76.61191, 12.6108], [76.61616, 12.60164], [76.6229, 12.59499], [76.63141, 12.59296], [76.64, 12.59368], [76.64834, 12.59461], [76.65665, 12.59642], [76.66383, 12.60166], [76.6685, 12.61023], [76.67157, 12.61899], [76.67559, 12.62594], [76.68116, 12.63246], [76.68573, 12.64056], [76.68707, 12.65]]]}}, {"type": "Feature", "properties": {"name": "Brahmagiri North RF", "center_lat": 15.2, "center_lon": 74.6}, "geometry": {"type": "Polygon", "coordinates": [[[74.67968, 15.2], [74.67614, 15.21619], [74.66709, 15.22946], [74.65767, 15.24016], [74.6513, 15.25192], [74.64579, 15.26583], [74.63734, 15.27801], [74.62568, 15.2851], [74.61303, 15.28917], [74.6, 15.29381], [74.58578, 15.29728], [74.57168, 15.29385], [74.5608, 15.2819], [74.55361, 15.26669], [74.54703, 15.25362], [74.5392, 15.24234], [74.53264, 15.22957], [74.53022, 15.21484], [74.53031, 15.2], [74.52904, 15.18491], [74.52673, 15.16783], [74.52831, 15.15007], [74.53688, 15.13611], [74.54978, 15.1278], [74.56265, 15.12197], [74.57459, 15.11579], [74.5871, 15.11173], [74.6, 15.11363], [74.61172, 15.11983], [74.62277, 15.12453], [74.63548, 15.12586], [74.64963, 15.12866], [74.66145, 15.1378], [74.66856, 15.15225], [74.673, 15.16795], [74.67732, 15.18355], [74.67968, 15.2]]]}}, {"type": "Feature", "properties": {"name": "Kali River RF", "center_lat": 15.35, "center_lon": 74.53}, "geometry": {"type": "Polygon", "coordinates": [[[74.6383, 15.35], [74.63367, 15.37404], [74.62164, 15.39386], [74.60898, 15.40996], [74.6005, 15.42779], [74.59331, 15.44921], [74.58196, 15.46836], [74.56585, 15.47952], [74.54813, 15.48523], [74.53, 15.49114], [74.5105, 15.49543], [74.49128, 15.4899], [74.47648, 15.47189], [74.46685, 15.44897], [74.458, 15.42944], [74.44704, 15.41299], [74.43725, 15.39439], [74.43304, 15.37248], [74.43277, 15.35], [74.43126, 15.32711], [74.4285, 15.30142], [74.43098, 15.27483], [74.44305, 15.25406], [74.4612, 15.24218], [74.4792, 15.2343], [74.49555, 15.22555], [74.51244, 15.21907], [74.53, 15.22087], [74.54619, 15.22926], [74.56157, 15.23593], [74.57925, 15.23783], [74.59896, 15.24193], [74.61545, 15.25572], [74.62503, 15.27785], [74.63038, 15.30196], [74.63544, 15.32555], [74.6383, 15.35]]]}}, {"type": "Feature", "properties": {"name": "Karwar RF", "center_lat": 14.8, "center_lon": 74.15}, "geometry": {"type": "Polygon", "coordinates": [[[74.25024, 14.8], [74.24819, 14.82092], [74.23787, 14.83865], [74.22431, 14.85185], [74.21358, 14.86447], [74.2055, 14.87994], [74.19548, 14.8952], [74.18158, 14.90486], [74.16596, 14.90937], [74.15, 14.91388], [74.13264, 14.91901], [74.11442, 14.91814], [74.09924, 14.90626], [74.08945, 14.88721], [74.08224, 14.86872], [74.07392, 14.85308], [74.06595, 14.83697], [74.06263, 14.81862], [74.06388, 14.8], [74.06466, 14.78181], [74.06275, 14.76162], [74.06291, 14.73924], [74.07082, 14.7197], [74.08571, 14.70741], [74.1023, 14.70015], [74.11784, 14.69322], [74.1336, 14.68757], [74.15, 14.68866], [74.165, 14.69721], [74.17816, 14.7065], [74.19242, 14.71121], [74.20924, 14.71468], [74.225, 14.72395], [74.23531, 14.74047], [74.24107, 14.75994], [74.24616, 14.77951], [74.25024, 14.8]]]}}, {"type": "Feature", "properties": {"name": "Yellapur RF", "center_lat": 14.97, "center_lon": 74.72}, "geometry": {"type": "Polygon", "coordinates": [[[74.8313, 14.97], [74.8262, 14.99302], [74.8133, 15.01175], [74.80007, 15.02684], [74.79092, 15.04317], [74.78265, 15.0618], [74.77044, 15.07742], [74.75446, 15.08641], [74.73757, 15.09253], [74.72, 15.10043], [74.70043, 15.10649], [74.68086, 15.1022], [74.66563, 15.08578], [74.65525, 15.06488], [74.6457, 15.04666], [74.63514, 15.03024], [74.62729, 15.01149], [74.62537, 14.99052], [74.62614, 14.97], [74.62416, 14.94922], [74.62051, 14.92548], [74.62239, 14.90071], [74.63376, 14.88103], [74.65077, 14.86856], [74.66786, 14.85897], [74.68429, 14.84937], [74.70195, 14.84411], [74.72, 14.84817], [74.73605, 14.85807], [74.75103, 14.86516], [74.76821, 14.86732], [74.78713, 14.87164], [74.80286, 14.88451], [74.81281, 14.90411], [74.82007, 14.92522], [74.82741, 14.94671], [74.8313, 14.97]]]}}, {"type": "Feature", "properties": {"name": "Haliyal RF", "center_lat": 15.33, "center_lon": 74.76}, "geometry": {"type": "Polygon", "coordinates": [[[74.84926, 15.33], [74.8446, 15.34758], [74.83435, 15.3619], [74.8245, 15.3739], [74.81815, 15.38752], [74.81214, 15.40324], [74.80234, 15.41644], [74.78902, 15.42398], [74.77476, 15.4287], [74.76, 15.43411], [74.74392, 15.43747], [74.72832, 15.43259], [74.71653, 15.41875], [74.70852, 15.40232], [74.70066, 15.38869], [74.69145, 15.37665], [74.6841, 15.36256], [74.68146, 15.34632], [74.68111, 15.33], [74.67901, 15.31317], [74.67634, 15.29411], [74.67888, 15.2748], [74.68935, 15.26012], [74.70405, 15.25141], [74.71827, 15.24479], [74.73151, 15.23774], [74.74557, 15.23351], [74.76, 15.23591], [74.77312, 15.24228], [74.78583, 15.24634], [74.8006, 15.2471], [74.8166, 15.25049], [74.82947, 15.26129], [74.83706, 15.27755], [74.8421, 15.29478], [74.84705, 15.31191], [74.84926, 15.33]]]}}, {"type": "Feature", "properties": {"name": "Joida RF", "center_lat": 15.05, "center_lon": 74.56}, "geometry": {"type": "Polygon", "coordinates": [[[74.64028, 15.05], [74.63701, 15.06639], [74.62791, 15.07983], [74.61808, 15.09048], [74.61123, 15.10189], [74.60544, 15.11537], [74.59695, 15.12726], [74.58539, 15.13422], [74.5729, 15.13828], [74.56, 15.14311], [74.54582, 15.14708], [74.53156, 15.14431], [74.5204, 15.1328], [74.51302, 15.11758], [74.5065, 15.10419], [74.49892, 15.09257], [74.49265, 15.07959], [74.49056, 15.06478], [74.49102, 15.05], [74.49002, 15.0351], [74.48764, 15.01821], [74.48882, 15.00039], [74.49689, 14.98607], [74.50949, 14.97734], [74.52232, 14.97122], [74.53434, 14.96491], [74.54698, 14.96084], [74.56, 14.96293], [74.57174, 14.96964], [74.58262, 14.97499], [74.59503, 14.97676], [74.60897, 14.97955], [74.62085, 14.98837], [74.62819, 15.00248], [74.63291, 15.01797], [74.63756, 15.03349], [74.64028, 15.05]]]}}, {"type": "Feature", "properties": {"name": "Supa RF", "center_lat": 15.1, "center_lon": 74.67}, "geometry": {"type": "Polygon", "coordinates": [[[74.74527, 15.1], [74.74181, 15.11467], [74.73315, 15.12663], [74.72425, 15.13629], [74.71821, 15.14687], [74.71284, 15.15915], [74.70472, 15.16968], [74.6938, 15.17577], [74.68211, 15.1796], [74.67, 15.18425], [74.65665, 15.18773], [74.64338, 15.18472], [74.63312, 15.174], [74.62624, 15.16042], [74.6199, 15.14871], [74.61261, 15.13839], [74.60685, 15.12663], [74.60505, 15.11327], [74.6053, 15.1], [74.60397, 15.08651], [74.60162, 15.07117], [74.60304, 15.05521], [74.61099, 15.04263], [74.62287, 15.03493], [74.63474, 15.02924], [74.64593, 15.02339], [74.65781, 15.0199], [74.67, 15.02208], [74.68095, 15.02803], [74.69126, 15.03234], [74.70311, 15.03356], [74.71621, 15.03619], [74.72712, 15.04447], [74.73383, 15.05731], [74.73838, 15.07117], [74.74289, 15.08511], [74.74527, 15.1]]]}}, {"type": "Feature", "properties": {"name": "Vatakanahalli RF", "center_lat": 15.45, "center_lon": 74.85}, "geometry": {"type": "Polygon", "coordinates": [[[74.919, 15.45], [74.91509, 15.46185], [74.90721, 15.4715], [74.90001, 15.47982], [74.89552, 15.48944], [74.89095, 15.5004], [74.8832, 15.50938], [74.87271, 15.51445], [74.86156, 15.51771], [74.85, 15.52139], [74.83748, 15.52334], [74.82551, 15.51948], [74.81659, 15.50977], [74.81039, 15.49875], [74.80405, 15.48982], [74.79664, 15.48182], [74.79083, 15.47224], [74.78869, 15.46116], [74.78814, 15.45], [74.78623, 15.43839], [74.78424, 15.42528], [74.78669, 15.41225], [74.79528, 15.40258], [74.80684, 15.39688], [74.81777, 15.39235], [74.82796, 15.38746], [74.83884, 15.38463], [74.85, 15.38625], [74.8602, 15.39026], [74.87027, 15.39249], [74.88201, 15.39274], [74.89451, 15.39523], [74.90429, 15.40295], [74.90996, 15.41425], [74.9138, 15.42602], [74.91755, 15.4377], [74.919, 15.45]]]}}, {"type": "Feature", "properties": {"name": "Chorla Ghats", "center_lat": 15.62, "center_lon": 74.2}, "geometry": {"type": "Polygon", "coordinates": [[[74.28601, 15.62], [74.28343, 15.63732], [74.27494, 15.65211], [74.26482, 15.66405], [74.25761, 15.6769], [74.25206, 15.69302], [74.24346, 15.70861], [74.23032, 15.71805], [74.21519, 15.72141], [74.2, 15.7233], [74.18431, 15.72476], [74.16879, 15.72093], [74.15656, 15.70857], [74.14884, 15.69177], [74.14226, 15.67703], [74.13334, 15.6653], [74.12385, 15.65263], [74.11841, 15.63693], [74.11763, 15.62], [74.11761, 15.6029], [74.11672, 15.58432], [74.119, 15.56495], [74.12863, 15.5495], [74.14382, 15.5412], [74.15927, 15.53697], [74.17273, 15.53181], [74.18595, 15.52622], [74.2, 15.52511], [74.21355, 15.52958], [74.22638, 15.53468], [74.24075, 15.53693], [74.25707, 15.53994], [74.27125, 15.54963], [74.27916, 15.5662], [74.28207, 15.58484], [74.28423, 15.60252], [74.28601, 15.62]]]}}, {"type": "Feature", "properties": {"name": "Castle Rock RF", "center_lat": 15.43, "center_lon": 74.51}, "geometry": {"type": "Polygon", "coordinates": [[[74.55893, 15.43], [74.55686, 15.43956], [74.5515, 15.44747], [74.54584, 15.45394], [74.54208, 15.46114], [74.5389, 15.46983], [74.53377, 15.47763], [74.52641, 15.48217], [74.51829, 15.48437], [74.51, 15.48653], [74.50115, 15.48806], [74.49246, 15.48575], [74.48579, 15.47851], [74.48146, 15.46935], [74.47745, 15.4616], [74.47239, 15.45512], [74.46777, 15.44778], [74.46568, 15.43904], [74.46548, 15.43], [74.46482, 15.42079], [74.46367, 15.4105], [74.46491, 15.39988], [74.47049, 15.39165], [74.47882, 15.38702], [74.48705, 15.38401], [74.49445, 15.38058], [74.50206, 15.3779], [74.51, 15.37843], [74.51738, 15.38159], [74.52442, 15.38416], [74.53252, 15.38488], [74.54153, 15.38653], [74.54904, 15.39211], [74.55333, 15.40106], [74.55559, 15.4108], [74.55772, 15.42027], [74.55893, 15.43]]]}}, {"type": "Feature", "properties": {"name": "Bidar RF", "center_lat": 17.9, "center_lon": 77.5}, "geometry": {"type": "Polygon", "coordinates": [[[77.5866, 17.9], [77.58648, 17.91306], [77.58907, 17.92776], [77.58866, 17.94384], [77.58002, 17.9575], [77.56485, 17.96619], [77.54852, 17.97198], [77.53302, 17.97769], [77.51682, 17.98169], [77.5, 17.9801], [77.48488, 17.97345], [77.47148, 17.96712], [77.45668, 17.96426], [77.43958, 17.96167], [77.42419, 17.95448], [77.41422, 17.94242], [77.40791, 17.92871], [77.40172, 17.91484], [77.39725, 17.9], [77.40002, 17.8849], [77.41114, 17.8723], [77.42468, 17.86276], [77.43497, 17.85327], [77.44314, 17.84197], [77.45385, 17.83154], [77.46826, 17.82531], [77.48394, 17.82199], [77.5, 17.81794], [77.51776, 17.81376], [77.53624, 17.81474], [77.55135, 17.82383], [77.56129, 17.83745], [77.56924, 17.85024], [77.5782, 17.86134], [77.58584, 17.87324], [77.58819, 17.88668], [77.5866, 17.9]]]}}, {"type": "Feature", "properties": {"name": "Kalaburagi RF", "center_lat": 17.3, "center_lon": 76.8}, "geometry": {"type": "Polygon", "coordinates": [[[76.8787, 17.3], [76.875, 17.31052], [76.87429, 17.32151], [76.87469, 17.33431], [76.87035, 17.34697], [76.85915, 17.35609], [76.84455, 17.36139], [76.83003, 17.36564], [76.81542, 17.36958], [76.8, 17.37012], [76.78557, 17.3651], [76.77374, 17.3574], [76.76253, 17.35164], [76.74914, 17.34823], [76.735, 17.34339], [76.72445, 17.3347], [76.7185, 17.3236], [76.71379, 17.31209], [76.70886, 17.3], [76.70774, 17.28706], [76.71469, 17.2753], [76.7276, 17.26674], [76.74024, 17.26011], [76.74998, 17.25257], [76.75963, 17.24436], [76.77194, 17.23866], [76.78593, 17.2365], [76.8, 17.23498], [76.81507, 17.23202], [76.83183, 17.23041], [76.84745, 17.23461], [76.85831, 17.24471], [76.86511, 17.25653], [76.87154, 17.26714], [76.8781, 17.27738], [76.88106, 17.28863], [76.8787, 17.3]]]}}, {"type": "Feature", "properties": {"name": "Koppal RF", "center_lat": 15.35, "center_lon": 76.15}, "geometry": {"type": "Polygon", "coordinates": [[[76.22408, 15.35], [76.21701, 15.35912], [76.20986, 15.36681], [76.20543, 15.37469], [76.20116, 15.38311], [76.19377, 15.39024], [76.18373, 15.39508], [76.17333, 15.39945], [76.16257, 15.40498], [76.15, 15.40958], [76.13643, 15.40939], [76.12461, 15.40382], [76.11533, 15.39633], [76.10664, 15.38987], [76.09788, 15.38374], [76.0915, 15.37605], [76.08904, 15.36712], [76.08772, 15.35847], [76.08394, 15.35], [76.07901, 15.34034], [76.07818, 15.32983], [76.08407, 15.32063], [76.09381, 15.31362], [76.10369, 15.30742], [76.11367, 15.30145], [76.1254, 15.29786], [76.13823, 15.29851], [76.15, 15.30147], [76.16076, 15.30293], [76.17254, 15.30223], [76.18539, 15.30271], [76.19671, 15.30705], [76.20523, 15.31425], [76.21286, 15.322], [76.22072, 15.33014], [76.22572, 15.3397], [76.22408, 15.35]]]}}, {"type": "Feature", "properties": {"name": "Raichur RF", "center_lat": 16.2, "center_lon": 77.3}, "geometry": {"type": "Polygon", "coordinates": [[[77.37124, 16.2], [77.36593, 16.20977], [77.36387, 16.21953], [77.36238, 16.23026], [77.35708, 16.24025], [77.34782, 16.24789], [77.33747, 16.25453], [77.32689, 16.26207], [77.3144, 16.26863], [77.3, 16.2699], [77.28641, 16.26477], [77.27522, 16.2572], [77.26488, 16.25112], [77.2541, 16.24596], [77.24483, 16.2389], [77.23909, 16.22955], [77.23487, 16.21992], [77.22857, 16.21058], [77.22114, 16.2], [77.21811, 16.18787], [77.22282, 16.1764], [77.23238, 16.1672], [77.24209, 16.15917], [77.25133, 16.15127], [77.26242, 16.14531], [77.27555, 16.14355], [77.28834, 16.14442], [77.3, 16.14377], [77.31247, 16.14056], [77.32656, 16.13868], [77.33993, 16.14189], [77.35059, 16.14934], [77.35982, 16.15782], [77.36908, 16.16649], [77.37592, 16.17678], [77.3764, 16.18868], [77.37124, 16.2]]]}}, {"type": "Feature", "properties": {"name": "Yadgir RF", "center_lat": 16.7, "center_lon": 77.2}, "geometry": {"type": "Polygon", "coordinates": [[[77.26083, 16.7], [77.25708, 16.70826], [77.25634, 16.71683], [77.25609, 16.72658], [77.25207, 16.73587], [77.24375, 16.74281], [77.23386, 16.74815], [77.22378, 16.75364], [77.2125, 16.7582], [77.2, 16.75852], [77.18846, 16.75372], [77.1791, 16.74715], [77.17024, 16.74231], [77.16039, 16.73875], [77.15115, 16.73365], [77.14482, 16.72616], [77.14039, 16.71781], [77.13499, 16.70941], [77.12915, 16.7], [77.12741, 16.68949], [77.1326, 16.67986], [77.14205, 16.67253], [77.15119, 16.66638], [77.15911, 16.65999], [77.16802, 16.65453], [77.17874, 16.65205], [77.18963, 16.65173], [77.2, 16.65042], [77.21133, 16.64725], [77.22414, 16.64556], [77.23608, 16.64869], [77.24503, 16.65594], [77.25202, 16.66416], [77.25886, 16.6721], [77.26412, 16.68084], [77.26467, 16.69064], [77.26083, 16.7]]]}}, {"type": "Feature", "properties": {"name": "Bellary Sandur Hill RF", "center_lat": 15.09, "center_lon": 76.54}, "geometry": {"type": "Polygon", "coordinates": [[[76.62927, 15.09], [76.62097, 15.10532], [76.61343, 15.11867], [76.60826, 15.13228], [76.6017, 15.14554], [76.59128, 15.15556], [76.57907, 15.1626], [76.5674, 15.17075], [76.55502, 15.18139], [76.54, 15.18924], [76.52385, 15.18828], [76.50968, 15.17936], [76.49774, 15.16853], [76.48616, 15.15884], [76.47569, 15.14789], [76.46965, 15.13358], [76.46821, 15.11803], [76.46661, 15.10388], [76.46131, 15.09], [76.45557, 15.07403], [76.45561, 15.05705], [76.46281, 15.04219], [76.47304, 15.02972], [76.48332, 15.01753], [76.49509, 15.00655], [76.50995, 15.00144], [76.52586, 15.00395], [76.54, 15.00906], [76.55301, 15.01084], [76.56713, 15.01005], [76.58171, 15.01249], [76.59412, 15.02081], [76.60435, 15.03207], [76.6151, 15.04349], [76.62604, 15.05641], [76.63201, 15.07259], [76.62927, 15.09]]]}}, {"type": "Feature", "properties": {"name": "Daroji Sloth Bear Sanctuary", "center_lat": 15.18, "center_lon": 76.57}, "geometry": {"type": "Polygon", "coordinates": [[[76.61928, 15.18], [76.61463, 15.18911], [76.61056, 15.1971], [76.60783, 15.20529], [76.60429, 15.21332], [76.59857, 15.21943], [76.59183, 15.2238], [76.58535, 15.22883], [76.57841, 15.23524], [76.57, 15.23978], [76.56103, 15.23894], [76.55322, 15.2334], [76.54665, 15.22684], [76.54026, 15.22105], [76.53446, 15.21453], [76.53108, 15.20602], [76.53017, 15.19679], [76.52906, 15.18836], [76.52593, 15.18], [76.5227, 15.17034], [76.52284, 15.16012], [76.52699, 15.15124], [76.53278, 15.14383], [76.53857, 15.13661], [76.54516, 15.13017], [76.55342, 15.12725], [76.5622, 15.12877], [76.57, 15.13167], [76.57724, 15.13247], [76.58515, 15.13181], [76.59332, 15.13322], [76.60026, 15.13824], [76.60597, 15.14504], [76.61192, 15.15197], [76.61788, 15.15982], [76.62099, 15.16959], [76.61928, 15.18]]]}}, {"type": "Feature", "properties": {"name": "Hagari RF", "center_lat": 15.1, "center_lon": 76.45}, "geometry": {"type": "Polygon", "coordinates": [[[76.5196, 15.1], [76.5131, 15.11228], [76.50699, 15.12289], [76.50286, 15.13368], [76.49793, 15.14438], [76.49002, 15.15262], [76.48051, 15.15831], [76.47131, 15.1646], [76.46165, 15.17291], [76.45, 15.17931], [76.43741, 15.1788], [76.42635, 15.17169], [76.41715, 15.16277], [76.4083, 15.15484], [76.40013, 15.14618], [76.39519, 15.13491], [76.39395, 15.12251], [76.39287, 15.11112], [76.38896, 15.1], [76.38444, 15.08725], [76.38423, 15.07359], [76.38973, 15.0616], [76.39786, 15.05172], [76.40605, 15.0422], [76.41519, 15.03347], [76.42663, 15.02915], [76.43897, 15.03096], [76.45, 15.03516], [76.46009, 15.03685], [76.47103, 15.03624], [76.48247, 15.03794], [76.49227, 15.04442], [76.5002, 15.05352], [76.50833, 15.06284], [76.51671, 15.07321], [76.52152, 15.08609], [76.5196, 15.1]]]}}, {"type": "Feature", "properties": {"name": "Nagarahole Extension RF", "center_lat": 11.8, "center_lon": 76.25}, "geometry": {"type": "Polygon", "coordinates": [[[76.33935, 11.8], [76.33715, 11.81655], [76.33498, 11.83331], [76.33368, 11.85202], [76.32839, 11.87083], [76.31555, 11.88412], [76.29798, 11.88948], [76.28082, 11.89119], [76.2654, 11.89402], [76.25, 11.89637], [76.2347, 11.89344], [76.22113, 11.88539], [76.20834, 11.87769], [76.1932, 11.87288], [76.17617, 11.86671], [76.16268, 11.85428], [76.15673, 11.83655], [76.15578, 11.81789], [76.15528, 11.8], [76.15587, 11.78213], [76.16201, 11.76552], [76.17427, 11.75292], [76.18738, 11.74343], [76.19723, 11.73229], [76.20594, 11.71783], [76.21787, 11.70494], [76.23343, 11.69883], [76.25, 11.69817], [76.26666, 11.69825], [76.28409, 11.69915], [76.30038, 11.70605], [76.31152, 11.72105], [76.31717, 11.73931], [76.32209, 11.75518], [76.3297, 11.76877], [76.33705, 11.78347], [76.33935, 11.8]]]}}, {"type": "Feature", "properties": {"name": "Bandipur Fringe Forest", "center_lat": 11.72, "center_lon": 76.85}, "geometry": {"type": "Polygon", "coordinates": [[[76.91955, 11.72], [76.91806, 11.73322], [76.91825, 11.74737], [76.91813, 11.76333], [76.91292, 11.77815], [76.90157, 11.7877], [76.88783, 11.79218], [76.87497, 11.79557], [76.86269, 11.7993], [76.85, 11.8], [76.83796, 11.79523], [76.82749, 11.78813], [76.81675, 11.78343], [76.80378, 11.78067], [76.79056, 11.77495], [76.78135, 11.76366], [76.7771, 11.74923], [76.77465, 11.73463], [76.77233, 11.72], [76.77308, 11.70506], [76.77992, 11.6919], [76.79064, 11.68225], [76.80014, 11.67392], [76.80694, 11.66348], [76.81422, 11.65174], [76.82462, 11.64319], [76.83713, 11.6396], [76.85, 11.63784], [76.86352, 11.63553], [76.87784, 11.63575], [76.89036, 11.64299], [76.89841, 11.65645], [76.90333, 11.67071], [76.90884, 11.68258], [76.91543, 11.69377], [76.91963, 11.70648], [76.91955, 11.72]]]}}, {"type": "Feature", "properties": {"name": "Kodagu RF North", "center_lat": 12.45, "center_lon": 75.7}, "geometry": {"type": "Polygon", "coordinates": [[[75.79493, 12.45], [75.79391, 12.47021], [75.78906, 12.48957], [75.78408, 12.50925], [75.77716, 12.52903], [75.76449, 12.54381], [75.74696, 12.54929], [75.72949, 12.54891], [75.71448, 12.55026], [75.7, 12.555], [75.68452, 12.55719], [75.66947, 12.5524], [75.65565, 12.54375], [75.64093, 12.53593], [75.62443, 12.5274], [75.61063, 12.51298], [75.60506, 12.49218], [75.607, 12.47002], [75.61041, 12.45], [75.61219, 12.4311], [75.61567, 12.41253], [75.62428, 12.39664], [75.63581, 12.38426], [75.64588, 12.37128], [75.6547, 12.35424], [75.66638, 12.33726], [75.68244, 12.32845], [75.7, 12.32978], [75.71656, 12.33538], [75.73257, 12.34076], [75.74791, 12.3487], [75.75953, 12.3634], [75.76578, 12.38263], [75.77043, 12.40036], [75.77845, 12.41515], [75.78872, 12.43091], [75.79493, 12.45]]]}}, {"type": "Feature", "properties": {"name": "Kodagu RF South", "center_lat": 12.1, "center_lon": 75.75}, "geometry": {"type": "Polygon", "coordinates": [[[75.83305, 12.1], [75.83203, 12.11571], [75.82841, 12.13101], [75.8251, 12.14711], [75.81987, 12.1637], [75.80897, 12.17635], [75.79324, 12.18136], [75.77725, 12.18133], [75.76333, 12.18211], [75.75, 12.18489], [75.73617, 12.18518], [75.72315, 12.18014], [75.7113, 12.17282], [75.6983, 12.16694], [75.68324, 12.16086], [75.67022, 12.15004], [75.6643, 12.13389], [75.66498, 12.11629], [75.66721, 12.1], [75.6687, 12.08443], [75.67257, 12.06938], [75.68148, 12.05702], [75.69283, 12.04788], [75.70236, 12.03832], [75.71031, 12.02532], [75.72052, 12.01202], [75.73453, 12.00467], [75.75, 12.00471], [75.76497, 12.00774], [75.77987, 12.01083], [75.79423, 12.01678], [75.8049, 12.02892], [75.81029, 12.04504], [75.81385, 12.05995], [75.82015, 12.07226], [75.82831, 12.085], [75.83305, 12.1]]]}}, {"type": "Feature", "properties": {"name": "Virajpet RF", "center_lat": 12.12, "center_lon": 75.79}, "geometry": {"type": "Polygon", "coordinates": [[[75.85928, 12.12], [75.85836, 12.13414], [75.8554, 12.14793], [75.85271, 12.16248], [75.8483, 12.17739], [75.83909, 12.18864], [75.82593, 12.19301], [75.81265, 12.19302], [75.8011, 12.19388], [75.79, 12.19647], [75.77848, 12.19667], [75.76764, 12.19208], [75.75774, 12.18557], [75.7468, 12.1804], [75.73421, 12.17492], [75.72346, 12.16507], [75.71868, 12.15046], [75.71929, 12.13463], [75.72106, 12.12], [75.72225, 12.10598], [75.72552, 12.09247], [75.73301, 12.0814], [75.74242, 12.07316], [75.75024, 12.06441], [75.75682, 12.05258], [75.76538, 12.04064], [75.7771, 12.03418], [75.79, 12.03431], [75.80248, 12.03697], [75.81491, 12.0397], [75.82684, 12.04513], [75.83565, 12.05618], [75.84009, 12.07069], [75.84316, 12.08399], [75.84856, 12.09499], [75.8554, 12.10647], [75.85928, 12.12]]]}}, {"type": "Feature", "properties": {"name": "Hunsur RF", "center_lat": 12.3, "center_lon": 76.18}, "geometry": {"type": "Polygon", "coordinates": [[[76.24502, 12.3], [76.24379, 12.31177], [76.24165, 12.32349], [76.23962, 12.33604], [76.23489, 12.34821], [76.22521, 12.3564], [76.21262, 12.35915], [76.20075, 12.35967], [76.19039, 12.36166], [76.18, 12.36426], [76.16925, 12.36381], [76.15925, 12.35967], [76.14965, 12.35502], [76.13862, 12.35162], [76.12664, 12.34687], [76.11763, 12.3377], [76.11444, 12.32498], [76.11512, 12.31198], [76.11593, 12.3], [76.11666, 12.28831], [76.12035, 12.27727], [76.12783, 12.26847], [76.136, 12.26135], [76.14223, 12.25288], [76.14808, 12.24212], [76.1566, 12.23269], [76.16797, 12.22858], [76.18, 12.22912], [76.19167, 12.23073], [76.2034, 12.23269], [76.2142, 12.23799], [76.2216, 12.2481], [76.22553, 12.26001], [76.22942, 12.27013], [76.23574, 12.27876], [76.24225, 12.28851], [76.24502, 12.3]]]}}, {"type": "Feature", "properties": {"name": "Piriyapatna RF", "center_lat": 12.34, "center_lon": 76.05}, "geometry": {"type": "Polygon", "coordinates": [[[76.1061, 12.34], [76.10512, 12.34949], [76.10296, 12.35883], [76.10092, 12.36872], [76.09688, 12.37843], [76.08877, 12.38514], [76.07802, 12.38741], [76.06774, 12.38762], [76.05884, 12.38897], [76.05, 12.39115], [76.04076, 12.39119], [76.03207, 12.38812], [76.02385, 12.38424], [76.01456, 12.38126], [76.00435, 12.37742], [75.99644, 12.37021], [75.99357, 12.36006], [75.99437, 12.34958], [75.99543, 12.34], [75.99614, 12.33072], [75.99897, 12.32186], [76.00508, 12.31466], [76.0121, 12.30893], [76.01764, 12.30232], [76.02269, 12.29379], [76.02989, 12.28603], [76.03962, 12.2825], [76.05, 12.28304], [76.05998, 12.28473], [76.06992, 12.28653], [76.07918, 12.29062], [76.0857, 12.29844], [76.08913, 12.30793], [76.09228, 12.31615], [76.09756, 12.32309], [76.10336, 12.33081], [76.1061, 12.34]]]}}, {"type": "Feature", "properties": {"name": "HD Kote RF", "center_lat": 12.0, "center_lon": 76.32}, "geometry": {"type": "Polygon", "coordinates": [[[76.40134, 12.0], [76.39958, 12.01525], [76.39774, 12.03075], [76.39627, 12.04786], [76.39083, 12.0646], [76.37862, 12.07593], [76.36258, 12.08016], [76.34732, 12.08156], [76.33369, 12.08439], [76.32, 12.08688], [76.30627, 12.08461], [76.29391, 12.0779], [76.28198, 12.07157], [76.26787, 12.06752], [76.25242, 12.06163], [76.24072, 12.04975], [76.23603, 12.03321], [76.2357, 12.01616], [76.23555, 12.0], [76.23632, 11.98396], [76.24195, 11.96913], [76.2527, 11.95777], [76.26384, 11.94878], [76.27206, 11.93791], [76.27969, 11.92412], [76.29061, 11.91225], [76.3049, 11.90695], [76.32, 11.9067], [76.33506, 11.90717], [76.35061, 11.90859], [76.36487, 11.91553], [76.37444, 11.92949], [76.37942, 11.94581], [76.38429, 11.95966], [76.39182, 11.97159], [76.39896, 11.98487], [76.40134, 12.0]]]}}, {"type": "Feature", "properties": {"name": "Gundlupet RF", "center_lat": 11.82, "center_lon": 76.7}, "geometry": {"type": "Polygon", "coordinates": [[[76.77042, 11.82], [76.76887, 11.83337], [76.76855, 11.84748], [76.76816, 11.86333], [76.76305, 11.87826], [76.75176, 11.88792], [76.73778, 11.89206], [76.72471, 11.89477], [76.71252, 11.89821], [76.7, 11.89945], [76.68791, 11.89547], [76.67731, 11.88864], [76.66661, 11.88369], [76.65368, 11.88078], [76.64022, 11.87524], [76.63067, 11.86408], [76.62656, 11.84943], [76.62484, 11.83459], [76.62315, 11.82], [76.62384, 11.80521], [76.63017, 11.79201], [76.64062, 11.78225], [76.65024, 11.77402], [76.6571, 11.7637], [76.66415, 11.75162], [76.67434, 11.74238], [76.68695, 11.73851], [76.7, 11.73728], [76.71349, 11.73577], [76.72768, 11.73626], [76.74024, 11.74325], [76.74835, 11.75656], [76.75303, 11.771], [76.75821, 11.783], [76.76495, 11.79397], [76.76987, 11.80643], [76.77042, 11.82]]]}}, {"type": "Feature", "properties": {"name": "Kabbinakad RF", "center_lat": 11.98, "center_lon": 76.17}, "geometry": {"type": "Polygon", "coordinates": [[[76.20626, 11.98], [76.2055, 11.98765], [76.20447, 11.99534], [76.20368, 12.00378], [76.20139, 12.01221], [76.19616, 12.01812], [76.18905, 12.02035], [76.18216, 12.02086], [76.17606, 12.02201], [76.17, 12.0233], [76.16388, 12.02244], [76.15834, 12.01917], [76.15311, 12.01578], [76.14699, 12.01353], [76.14014, 12.01064], [76.13473, 12.0049], [76.13248, 11.9967], [76.13243, 11.9881], [76.13259, 11.98], [76.13294, 11.97201], [76.13523, 11.96453], [76.13988, 11.95873], [76.14495, 11.9543], [76.1488, 11.94911], [76.15222, 11.94233], [76.15696, 11.9362], [76.16326, 11.93329], [76.17, 11.93321], [76.17667, 11.93372], [76.18354, 11.93451], [76.18994, 11.93776], [76.19435, 11.94451], [76.19658, 11.95273], [76.19854, 11.95985], [76.20171, 11.96589], [76.20499, 11.97246], [76.20626, 11.98]]]}}, {"type": "Feature", "properties": {"name": "Antharasanthe RF", "center_lat": 12.43, "center_lon": 76.41}, "geometry": {"type": "Polygon", "coordinates": [[[76.44728, 12.43], [76.44654, 12.43629], [76.44555, 12.44264], [76.44444, 12.44942], [76.44141, 12.45574], [76.43552, 12.4597], [76.42831, 12.46096], [76.42174, 12.4615], [76.41595, 12.46295], [76.41, 12.4644], [76.40386, 12.46398], [76.39815, 12.46178], [76.39249, 12.45962], [76.38592, 12.45802], [76.37911, 12.45532], [76.37438, 12.45008], [76.37295, 12.44317], [76.3733, 12.43632], [76.37348, 12.43], [76.37386, 12.42378], [76.3762, 12.41798], [76.38053, 12.41338], [76.38487, 12.40941], [76.38808, 12.40449], [76.3914, 12.39855], [76.3965, 12.39377], [76.40313, 12.39197], [76.41, 12.39233], [76.41668, 12.393], [76.4234, 12.39406], [76.42939, 12.3972], [76.43336, 12.40281], [76.43564, 12.40899], [76.4383, 12.41405], [76.4423, 12.41852], [76.44598, 12.4238], [76.44728, 12.43]]]}}, {"type": "Feature", "properties": {"name": "Ghat Road RF", "center_lat": 12.65, "center_lon": 75.92}, "geometry": {"type": "Polygon", "coordinates": [[[75.95846, 12.65], [75.95778, 12.65813], [75.95585, 12.66591], [75.95389, 12.67387], [75.95088, 12.6816], [75.94544, 12.68698], [75.93834, 12.68875], [75.93158, 12.68881], [75.92578, 12.69001], [75.92, 12.69235], [75.91376, 12.69319], [75.90771, 12.69118], [75.90205, 12.68792], [75.89591, 12.68502], [75.88928, 12.68144], [75.88419, 12.67522], [75.88254, 12.66663], [75.8835, 12.65785], [75.88459, 12.65], [75.88504, 12.64248], [75.88644, 12.6351], [75.88992, 12.62882], [75.89429, 12.62369], [75.89796, 12.61797], [75.90141, 12.61073], [75.90632, 12.60415], [75.91296, 12.60129], [75.92, 12.60226], [75.92658, 12.60447], [75.93297, 12.60653], [75.93898, 12.6099], [75.94338, 12.61601], [75.94586, 12.62354], [75.94816, 12.63017], [75.95195, 12.63582], [75.95624, 12.64221], [75.95846, 12.65]]]}}, {"type": "Feature", "properties": {"name": "Sakleshpur RF", "center_lat": 12.94, "center_lon": 75.77}, "geometry": {"type": "Polygon", "coordinates": [[[75.82915, 12.94], [75.82799, 12.95246], [75.82427, 12.96406], [75.82041, 12.97546], [75.81549, 12.9865], [75.80748, 12.99441], [75.79709, 12.99716], [75.78712, 12.99729], [75.77858, 12.99928], [75.77, 13.00352], [75.76046, 13.00588], [75.75101, 13.00355], [75.74232, 12.9984], [75.73334, 12.99323], [75.72382, 12.98721], [75.71649, 12.97764], [75.71428, 12.96471], [75.71617, 12.95156], [75.71822, 12.94], [75.71875, 12.92899], [75.72003, 12.91784], [75.72434, 12.90789], [75.73052, 12.89964], [75.73617, 12.89089], [75.74163, 12.88013], [75.74918, 12.87031], [75.75932, 12.8662], [75.77, 12.86838], [75.77973, 12.8728], [75.78895, 12.87656], [75.79779, 12.88137], [75.80464, 12.88971], [75.80879, 12.90034], [75.81256, 12.91007], [75.81852, 12.91849], [75.82541, 12.9281], [75.82915, 12.94]]]}}, {"type": "Feature", "properties": {"name": "Chikmagalur Hills RF", "center_lat": 13.31, "center_lon": 75.74}, "geometry": {"type": "Polygon", "coordinates": [[[75.81076, 13.31], [75.80871, 13.32516], [75.80337, 13.33886], [75.79797, 13.35188], [75.79181, 13.36439], [75.78257, 13.37348], [75.77088, 13.37692], [75.75971, 13.37775], [75.75003, 13.38115], [75.74, 13.38739], [75.72857, 13.39113], [75.71714, 13.38858], [75.70683, 13.38188], [75.69661, 13.37469], [75.68615, 13.36653], [75.67837, 13.35452], [75.67641, 13.33896], [75.67892, 13.32347], [75.68115, 13.31], [75.68107, 13.297], [75.68158, 13.28339], [75.68573, 13.2708], [75.69252, 13.26016], [75.69926, 13.24925], [75.70608, 13.23649], [75.71538, 13.22536], [75.72752, 13.22146], [75.74, 13.22523], [75.75107, 13.23144], [75.76147, 13.2362], [75.77163, 13.24145], [75.77992, 13.25047], [75.78544, 13.2623], [75.79061, 13.27344], [75.79821, 13.28349], [75.80656, 13.29532], [75.81076, 13.31]]]}}, {"type": "Feature", "properties": {"name": "Mudigere RF", "center_lat": 13.13, "center_lon": 75.64}, "geometry": {"type": "Polygon", "coordinates": [[[75.70003, 13.13], [75.69877, 13.14177], [75.69445, 13.15252], [75.68993, 13.16275], [75.68479, 13.1727], [75.67699, 13.18008], [75.66688, 13.18289], [75.65703, 13.18315], [75.64855, 13.18508], [75.64, 13.1894], [75.63034, 13.19226], [75.62062, 13.19049], [75.61183, 13.18543], [75.6031, 13.17996], [75.59397, 13.17389], [75.58683, 13.16488], [75.58467, 13.15288], [75.58673, 13.14067], [75.58902, 13.13], [75.58944, 13.11987], [75.59014, 13.10938], [75.5938, 13.09969], [75.59975, 13.09163], [75.60563, 13.08346], [75.61137, 13.07366], [75.61906, 13.06463], [75.62927, 13.06087], [75.64, 13.06328], [75.64961, 13.06805], [75.65859, 13.07197], [75.66734, 13.07621], [75.67446, 13.08335], [75.67901, 13.09281], [75.68297, 13.10181], [75.68899, 13.10974], [75.69605, 13.11877], [75.70003, 13.13]]]}}]}